{
  "type": "Feature",
  "properties": {
    "name": "Thành phố Hồ Chí Minh",
    "asOf": "2025-06-01T00:00:00Z"
  },
  "geometry": {
    "type": "MultiPolygon",
    "coordinates": [
      [
        [
          [
            106.99337,
            10.13995
          ],
          [
            106.851,
            10.32711
          ],
          [
            106.81013,
            10.38637
          ],
          [
            106.79251,
            10.4184
          ],
          [
            106.77146,
            10.44092
          ],
          [
            106.76116,
            10.45379
          ],
          [
            106.75623,
            10.46091
          ],
          [
            106.75364,
            10.4673
          ],
          [
            106.75123,
            10.47532
          ],
          [
            106.74523,
            10.49783
          ],
          [
            106.74553,
            10.50339
          ],
          [
            106.74681,
            10.51537
          ],
          [
            106.74724,
            10.52802
          ],
          [
            106.74343,
            10.55328
          ],
          [
            106.74235,
            10.55839
          ],
          [
            106.7419,
            10.56392
          ],
          [
            106.74259,
            10.56934
          ],
          [
            106.74454,
            10.5743
          ],
          [
            106.74571,
            10.57627
          ],
          [
            106.74311,
            10.5783
          ],
          [
            106.74123,
            10.57907
          ],
          [
            106.74014,
            10.57905
          ],
          [
            106.73805,
            10.57845
          ],
          [
            106.73677,
            10.57708
          ],
          [
            106.73556,
            10.57741
          ],
          [
            106.73507,
            10.57815
          ],
          [
            106.73506,
            10.57873
          ],
          [
            106.73867,
            10.58118
          ],
          [
            106.7395,
            10.5828
          ],
          [
            106.7394,
            10.58391
          ],
          [
            106.73882,
            10.58516
          ],
          [
            106.73792,
            10.58596
          ],
          [
            106.73684,
            10.5864
          ],
          [
            106.73597,
            10.58648
          ],
          [
            106.73529,
            10.58614
          ],
          [
            106.73475,
            10.58522
          ],
          [
            106.7348,
            10.5823
          ],
          [
            106.73344,
            10.58127
          ],
          [
            106.73275,
            10.58027
          ],
          [
            106.73097,
            10.57971
          ],
          [
            106.7287,
            10.58005
          ],
          [
            106.72672,
            10.5841
          ],
          [
            106.72702,
            10.58555
          ],
          [
            106.72581,
            10.58523
          ],
          [
            106.72513,
            10.58543
          ],
          [
            106.72324,
            10.58834
          ],
          [
            106.72366,
            10.59063
          ],
          [
            106.72337,
            10.59349
          ],
          [
            106.72064,
            10.59562
          ],
          [
            106.72029,
            10.59638
          ],
          [
            106.72036,
            10.59737
          ],
          [
            106.72183,
            10.59981
          ],
          [
            106.71951,
            10.60297
          ],
          [
            106.71894,
            10.60592
          ],
          [
            106.7196,
            10.60651
          ],
          [
            106.722,
            10.60691
          ],
          [
            106.72291,
            10.61043
          ],
          [
            106.72367,
            10.61172
          ],
          [
            106.72395,
            10.61193
          ],
          [
            106.72528,
            10.6113
          ],
          [
            106.7265,
            10.61133
          ],
          [
            106.72729,
            10.60998
          ],
          [
            106.72837,
            10.60901
          ],
          [
            106.72901,
            10.60939
          ],
          [
            106.73125,
            10.60887
          ],
          [
            106.73279,
            10.60996
          ],
          [
            106.73161,
            10.61214
          ],
          [
            106.73059,
            10.61245
          ],
          [
            106.72941,
            10.61188
          ],
          [
            106.72913,
            10.61205
          ],
          [
            106.72754,
            10.61618
          ],
          [
            106.72788,
            10.61685
          ],
          [
            106.72876,
            10.61621
          ],
          [
            106.72921,
            10.6166
          ],
          [
            106.72995,
            10.61793
          ],
          [
            106.72985,
            10.62021
          ],
          [
            106.73178,
            10.62278
          ],
          [
            106.7314,
            10.6237
          ],
          [
            106.729,
            10.62397
          ],
          [
            106.72837,
            10.62443
          ],
          [
            106.72907,
            10.62829
          ],
          [
            106.72977,
            10.62873
          ],
          [
            106.73144,
            10.62776
          ],
          [
            106.73193,
            10.62775
          ],
          [
            106.73324,
            10.62888
          ],
          [
            106.73122,
            10.63295
          ],
          [
            106.73114,
            10.63329
          ],
          [
            106.73136,
            10.63333
          ],
          [
            106.73073,
            10.63537
          ],
          [
            106.72977,
            10.63644
          ],
          [
            106.72613,
            10.63797
          ],
          [
            106.72515,
            10.63972
          ],
          [
            106.7237,
            10.64128
          ],
          [
            106.72293,
            10.64527
          ],
          [
            106.72245,
            10.64583
          ],
          [
            106.72157,
            10.6461
          ],
          [
            106.71995,
            10.64558
          ],
          [
            106.71869,
            10.64574
          ],
          [
            106.7157,
            10.64812
          ],
          [
            106.71231,
            10.65023
          ],
          [
            106.71118,
            10.65055
          ],
          [
            106.70874,
            10.6499
          ],
          [
            106.70732,
            10.65007
          ],
          [
            106.70478,
            10.65119
          ],
          [
            106.70374,
            10.65319
          ],
          [
            106.70205,
            10.6529
          ],
          [
            106.70064,
            10.65397
          ],
          [
            106.70007,
            10.65384
          ],
          [
            106.69711,
            10.65155
          ],
          [
            106.69675,
            10.6504
          ],
          [
            106.69627,
            10.64986
          ],
          [
            106.69079,
            10.64865
          ],
          [
            106.69023,
            10.64921
          ],
          [
            106.6904,
            10.65027
          ],
          [
            106.69019,
            10.65141
          ],
          [
            106.68846,
            10.65343
          ],
          [
            106.68756,
            10.65537
          ],
          [
            106.68697,
            10.6561
          ],
          [
            106.68539,
            10.65657
          ],
          [
            106.68583,
            10.65315
          ],
          [
            106.68509,
            10.65093
          ],
          [
            106.68173,
            10.64843
          ],
          [
            106.67927,
            10.64543
          ],
          [
            106.67401,
            10.64445
          ],
          [
            106.67355,
            10.64392
          ],
          [
            106.67325,
            10.64225
          ],
          [
            106.67153,
            10.64149
          ],
          [
            106.66964,
            10.63928
          ],
          [
            106.66792,
            10.63924
          ],
          [
            106.6666,
            10.64043
          ],
          [
            106.66628,
            10.63999
          ],
          [
            106.66646,
            10.63879
          ],
          [
            106.66604,
            10.63843
          ],
          [
            106.66561,
            10.6396
          ],
          [
            106.665,
            10.63889
          ],
          [
            106.66457,
            10.63953
          ],
          [
            106.66403,
            10.63955
          ],
          [
            106.66334,
            10.64008
          ],
          [
            106.66262,
            10.63927
          ],
          [
            106.66184,
            10.6399
          ],
          [
            106.66086,
            10.64008
          ],
          [
            106.66019,
            10.63981
          ],
          [
            106.6599,
            10.64022
          ],
          [
            106.66002,
            10.64098
          ],
          [
            106.66072,
            10.64199
          ],
          [
            106.65811,
            10.6432
          ],
          [
            106.65694,
            10.64332
          ],
          [
            106.65629,
            10.64204
          ],
          [
            106.65685,
            10.64025
          ],
          [
            106.6565,
            10.63881
          ],
          [
            106.65618,
            10.63847
          ],
          [
            106.65598,
            10.63889
          ],
          [
            106.65395,
            10.63944
          ],
          [
            106.65294,
            10.63789
          ],
          [
            106.65328,
            10.63655
          ],
          [
            106.65311,
            10.63435
          ],
          [
            106.65349,
            10.63331
          ],
          [
            106.65284,
            10.6323
          ],
          [
            106.65137,
            10.63269
          ],
          [
            106.64848,
            10.63271
          ],
          [
            106.64684,
            10.63415
          ],
          [
            106.6462,
            10.63424
          ],
          [
            106.64378,
            10.62962
          ],
          [
            106.64103,
            10.62662
          ],
          [
            106.63913,
            10.627
          ],
          [
            106.63889,
            10.62747
          ],
          [
            106.6373,
            10.62628
          ],
          [
            106.63532,
            10.62612
          ],
          [
            106.63494,
            10.62531
          ],
          [
            106.63288,
            10.62799
          ],
          [
            106.63163,
            10.62828
          ],
          [
            106.63014,
            10.62643
          ],
          [
            106.62956,
            10.62759
          ],
          [
            106.62968,
            10.62894
          ],
          [
            106.63077,
            10.6302
          ],
          [
            106.62963,
            10.63165
          ],
          [
            106.62986,
            10.63324
          ],
          [
            106.62979,
            10.63426
          ],
          [
            106.62934,
            10.63514
          ],
          [
            106.62951,
            10.63631
          ],
          [
            106.63116,
            10.63674
          ],
          [
            106.63036,
            10.63849
          ],
          [
            106.63053,
            10.63906
          ],
          [
            106.62968,
            10.63934
          ],
          [
            106.6299,
            10.6403
          ],
          [
            106.62953,
            10.64039
          ],
          [
            106.62973,
            10.64113
          ],
          [
            106.62948,
            10.64203
          ],
          [
            106.62815,
            10.64181
          ],
          [
            106.62718,
            10.6424
          ],
          [
            106.62581,
            10.63972
          ],
          [
            106.62449,
            10.63986
          ],
          [
            106.62411,
            10.63944
          ],
          [
            106.62279,
            10.64041
          ],
          [
            106.62121,
            10.64093
          ],
          [
            106.62138,
            10.64152
          ],
          [
            106.62219,
            10.64151
          ],
          [
            106.62251,
            10.64259
          ],
          [
            106.62213,
            10.64266
          ],
          [
            106.62206,
            10.64316
          ],
          [
            106.62154,
            10.64327
          ],
          [
            106.62177,
            10.6441
          ],
          [
            106.62336,
            10.64408
          ],
          [
            106.62344,
            10.64443
          ],
          [
            106.62433,
            10.64446
          ],
          [
            106.62438,
            10.64537
          ],
          [
            106.62389,
            10.64609
          ],
          [
            106.62471,
            10.64708
          ],
          [
            106.62456,
            10.64745
          ],
          [
            106.62403,
            10.64741
          ],
          [
            106.62406,
            10.64766
          ],
          [
            106.62113,
            10.64872
          ],
          [
            106.61896,
            10.64901
          ],
          [
            106.61898,
            10.64968
          ],
          [
            106.61734,
            10.65017
          ],
          [
            106.61727,
            10.65093
          ],
          [
            106.61776,
            10.65127
          ],
          [
            106.61772,
            10.65196
          ],
          [
            106.61679,
            10.6522
          ],
          [
            106.61674,
            10.65334
          ],
          [
            106.61606,
            10.6533
          ],
          [
            106.61584,
            10.65379
          ],
          [
            106.61546,
            10.65387
          ],
          [
            106.61563,
            10.65411
          ],
          [
            106.61459,
            10.65373
          ],
          [
            106.61419,
            10.65385
          ],
          [
            106.61378,
            10.65451
          ],
          [
            106.61345,
            10.65436
          ],
          [
            106.61232,
            10.65581
          ],
          [
            106.61153,
            10.65611
          ],
          [
            106.61143,
            10.6566
          ],
          [
            106.61083,
            10.6569
          ],
          [
            106.61051,
            10.6566
          ],
          [
            106.60925,
            10.65748
          ],
          [
            106.60579,
            10.65814
          ],
          [
            106.60538,
            10.6587
          ],
          [
            106.60419,
            10.65701
          ],
          [
            106.60285,
            10.65344
          ],
          [
            106.60192,
            10.65233
          ],
          [
            106.60175,
            10.65128
          ],
          [
            106.60065,
            10.65069
          ],
          [
            106.60031,
            10.652
          ],
          [
            106.59966,
            10.65226
          ],
          [
            106.59961,
            10.65259
          ],
          [
            106.59909,
            10.65252
          ],
          [
            106.59749,
            10.65314
          ],
          [
            106.59751,
            10.65338
          ],
          [
            106.59523,
            10.6535
          ],
          [
            106.59555,
            10.65297
          ],
          [
            106.59593,
            10.65039
          ],
          [
            106.59501,
            10.65037
          ],
          [
            106.59498,
            10.6506
          ],
          [
            106.59166,
            10.65011
          ],
          [
            106.59149,
            10.65117
          ],
          [
            106.59091,
            10.65109
          ],
          [
            106.59053,
            10.65278
          ],
          [
            106.58698,
            10.65249
          ],
          [
            106.58686,
            10.65321
          ],
          [
            106.58413,
            10.65366
          ],
          [
            106.5832,
            10.65537
          ],
          [
            106.58065,
            10.65548
          ],
          [
            106.58058,
            10.65606
          ],
          [
            106.57983,
            10.6561
          ],
          [
            106.57939,
            10.65493
          ],
          [
            106.57791,
            10.65324
          ],
          [
            106.57801,
            10.65189
          ],
          [
            106.57955,
            10.6519
          ],
          [
            106.57937,
            10.65038
          ],
          [
            106.57897,
            10.6496
          ],
          [
            106.57862,
            10.64919
          ],
          [
            106.57696,
            10.64889
          ],
          [
            106.57667,
            10.64935
          ],
          [
            106.57546,
            10.64911
          ],
          [
            106.57512,
            10.64987
          ],
          [
            106.57336,
            10.64986
          ],
          [
            106.57307,
            10.65206
          ],
          [
            106.57349,
            10.65413
          ],
          [
            106.56984,
            10.65626
          ],
          [
            106.56862,
            10.65658
          ],
          [
            106.56852,
            10.65605
          ],
          [
            106.56627,
            10.65643
          ],
          [
            106.56588,
            10.65377
          ],
          [
            106.56505,
            10.65303
          ],
          [
            106.5653,
            10.6523
          ],
          [
            106.56313,
            10.65221
          ],
          [
            106.56307,
            10.65149
          ],
          [
            106.55903,
            10.65188
          ],
          [
            106.55878,
            10.65061
          ],
          [
            106.55918,
            10.64996
          ],
          [
            106.55853,
            10.64864
          ],
          [
            106.55793,
            10.6486
          ],
          [
            106.55727,
            10.65051
          ],
          [
            106.55567,
            10.65093
          ],
          [
            106.55521,
            10.65258
          ],
          [
            106.5553,
            10.65468
          ],
          [
            106.55601,
            10.6554
          ],
          [
            106.55592,
            10.65697
          ],
          [
            106.55272,
            10.65749
          ],
          [
            106.54897,
            10.65743
          ],
          [
            106.54927,
            10.65966
          ],
          [
            106.55049,
            10.65903
          ],
          [
            106.55137,
            10.66128
          ],
          [
            106.55152,
            10.66414
          ],
          [
            106.55199,
            10.66485
          ],
          [
            106.55324,
            10.6657
          ],
          [
            106.55358,
            10.66858
          ],
          [
            106.55283,
            10.66912
          ],
          [
            106.55206,
            10.67059
          ],
          [
            106.55227,
            10.67127
          ],
          [
            106.55323,
            10.67206
          ],
          [
            106.55333,
            10.67456
          ],
          [
            106.55368,
            10.6754
          ],
          [
            106.55309,
            10.67569
          ],
          [
            106.55281,
            10.67734
          ],
          [
            106.55151,
            10.67965
          ],
          [
            106.55149,
            10.68127
          ],
          [
            106.55062,
            10.68542
          ],
          [
            106.54946,
            10.68635
          ],
          [
            106.54812,
            10.68628
          ],
          [
            106.54715,
            10.68714
          ],
          [
            106.54021,
            10.6861
          ],
          [
            106.53787,
            10.68616
          ],
          [
            106.53571,
            10.68556
          ],
          [
            106.53512,
            10.68704
          ],
          [
            106.53387,
            10.68816
          ],
          [
            106.5288,
            10.7028
          ],
          [
            106.52726,
            10.70903
          ],
          [
            106.52843,
            10.71493
          ],
          [
            106.53025,
            10.71728
          ],
          [
            106.52383,
            10.72097
          ],
          [
            106.52023,
            10.7237
          ],
          [
            106.50937,
            10.71705
          ],
          [
            106.50169,
            10.72654
          ],
          [
            106.49963,
            10.72499
          ],
          [
            106.49583,
            10.72772
          ],
          [
            106.49542,
            10.72744
          ],
          [
            106.48899,
            10.73126
          ],
          [
            106.48716,
            10.72981
          ],
          [
            106.48242,
            10.73568
          ],
          [
            106.48211,
            10.73544
          ],
          [
            106.47351,
            10.74649
          ],
          [
            106.47223,
            10.74553
          ],
          [
            106.46356,
            10.7565
          ],
          [
            106.4885,
            10.77549
          ],
          [
            106.50448,
            10.78898
          ],
          [
            106.50565,
            10.79376
          ],
          [
            106.50622,
            10.79498
          ],
          [
            106.51522,
            10.83296
          ],
          [
            106.52148,
            10.85752
          ],
          [
            106.52577,
            10.87324
          ],
          [
            106.52659,
            10.87728
          ],
          [
            106.53323,
            10.9013
          ],
          [
            106.53075,
            10.90305
          ],
          [
            106.52818,
            10.90402
          ],
          [
            106.49624,
            10.92072
          ],
          [
            106.45333,
            10.94205
          ],
          [
            106.4119,
            10.97354
          ],
          [
            106.41093,
            10.97368
          ],
          [
            106.37319,
            10.96962
          ],
          [
            106.3567,
            10.9916
          ],
          [
            106.35819,
            10.99235
          ],
          [
            106.35783,
            10.99306
          ],
          [
            106.36025,
            10.99467
          ],
          [
            106.35992,
            10.9953
          ],
          [
            106.36209,
            10.99627
          ],
          [
            106.36261,
            10.99718
          ],
          [
            106.36325,
            10.99756
          ],
          [
            106.36351,
            10.99723
          ],
          [
            106.36697,
            10.99872
          ],
          [
            106.37697,
            10.99993
          ],
          [
            106.3773,
            11.00039
          ],
          [
            106.37793,
            11.00011
          ],
          [
            106.37827,
            11.00025
          ],
          [
            106.38071,
            10.9984
          ],
          [
            106.38503,
            10.99932
          ],
          [
            106.38819,
            10.99924
          ],
          [
            106.38847,
            10.99947
          ],
          [
            106.39118,
            10.99973
          ],
          [
            106.40332,
            11.00357
          ],
          [
            106.40532,
            11.00376
          ],
          [
            106.4056,
            11.00528
          ],
          [
            106.40624,
            11.00535
          ],
          [
            106.40635,
            11.00627
          ],
          [
            106.41054,
            11.00746
          ],
          [
            106.4129,
            11.0089
          ],
          [
            106.41115,
            11.01323
          ],
          [
            106.41016,
            11.0136
          ],
          [
            106.40962,
            11.01465
          ],
          [
            106.40913,
            11.01482
          ],
          [
            106.40896,
            11.01656
          ],
          [
            106.40936,
            11.01692
          ],
          [
            106.40956,
            11.01797
          ],
          [
            106.40893,
            11.02001
          ],
          [
            106.409,
            11.02263
          ],
          [
            106.40968,
            11.02348
          ],
          [
            106.4094,
            11.02391
          ],
          [
            106.41056,
            11.02586
          ],
          [
            106.41149,
            11.02939
          ],
          [
            106.41202,
            11.03026
          ],
          [
            106.41321,
            11.0313
          ],
          [
            106.41327,
            11.03195
          ],
          [
            106.41497,
            11.03366
          ],
          [
            106.41616,
            11.03404
          ],
          [
            106.41721,
            11.03503
          ],
          [
            106.41846,
            11.03548
          ],
          [
            106.41875,
            11.0361
          ],
          [
            106.42014,
            11.03619
          ],
          [
            106.42016,
            11.03692
          ],
          [
            106.42136,
            11.03954
          ],
          [
            106.42106,
            11.03975
          ],
          [
            106.4222,
            11.04153
          ],
          [
            106.42168,
            11.04201
          ],
          [
            106.42281,
            11.04281
          ],
          [
            106.42243,
            11.04334
          ],
          [
            106.42291,
            11.04367
          ],
          [
            106.42229,
            11.04461
          ],
          [
            106.42339,
            11.04545
          ],
          [
            106.42265,
            11.04663
          ],
          [
            106.42478,
            11.04738
          ],
          [
            106.4226,
            11.04924
          ],
          [
            106.42034,
            11.05196
          ],
          [
            106.42127,
            11.05559
          ],
          [
            106.42101,
            11.05743
          ],
          [
            106.42309,
            11.05819
          ],
          [
            106.42074,
            11.06113
          ],
          [
            106.42163,
            11.06192
          ],
          [
            106.42022,
            11.06338
          ],
          [
            106.42131,
            11.06491
          ],
          [
            106.4216,
            11.06481
          ],
          [
            106.4228,
            11.06614
          ],
          [
            106.42578,
            11.06662
          ],
          [
            106.42531,
            11.06852
          ],
          [
            106.42538,
            11.06937
          ],
          [
            106.42739,
            11.07401
          ],
          [
            106.42742,
            11.07506
          ],
          [
            106.42667,
            11.07636
          ],
          [
            106.42641,
            11.07808
          ],
          [
            106.42605,
            11.07801
          ],
          [
            106.42591,
            11.08135
          ],
          [
            106.42656,
            11.08179
          ],
          [
            106.42656,
            11.08305
          ],
          [
            106.4272,
            11.08322
          ],
          [
            106.42681,
            11.08371
          ],
          [
            106.42713,
            11.08398
          ],
          [
            106.42655,
            11.08477
          ],
          [
            106.42641,
            11.08917
          ],
          [
            106.42601,
            11.09165
          ],
          [
            106.42691,
            11.09198
          ],
          [
            106.43089,
            11.09209
          ],
          [
            106.43085,
            11.09371
          ],
          [
            106.4316,
            11.09834
          ],
          [
            106.4323,
            11.09833
          ],
          [
            106.4331,
            11.10034
          ],
          [
            106.43388,
            11.10024
          ],
          [
            106.43739,
            11.10991
          ],
          [
            106.43712,
            11.11013
          ],
          [
            106.43736,
            11.11153
          ],
          [
            106.43775,
            11.11224
          ],
          [
            106.43855,
            11.11266
          ],
          [
            106.44043,
            11.11473
          ],
          [
            106.44115,
            11.11491
          ],
          [
            106.44147,
            11.11469
          ],
          [
            106.44233,
            11.11556
          ],
          [
            106.44307,
            11.11925
          ],
          [
            106.44358,
            11.12018
          ],
          [
            106.44401,
            11.12258
          ],
          [
            106.44443,
            11.12309
          ],
          [
            106.44481,
            11.12649
          ],
          [
            106.44536,
            11.1274
          ],
          [
            106.44608,
            11.12764
          ],
          [
            106.44707,
            11.12969
          ],
          [
            106.44849,
            11.13073
          ],
          [
            106.44782,
            11.13211
          ],
          [
            106.44808,
            11.13227
          ],
          [
            106.44776,
            11.13603
          ],
          [
            106.45015,
            11.13611
          ],
          [
            106.45164,
            11.13651
          ],
          [
            106.45509,
            11.13959
          ],
          [
            106.45643,
            11.14132
          ],
          [
            106.45796,
            11.14537
          ],
          [
            106.45826,
            11.14846
          ],
          [
            106.45788,
            11.1525
          ],
          [
            106.45733,
            11.15316
          ],
          [
            106.45646,
            11.15338
          ],
          [
            106.45412,
            11.15188
          ],
          [
            106.45277,
            11.15159
          ],
          [
            106.45194,
            11.15186
          ],
          [
            106.45155,
            11.15285
          ],
          [
            106.45166,
            11.15554
          ],
          [
            106.45228,
            11.15748
          ],
          [
            106.45294,
            11.15846
          ],
          [
            106.45465,
            11.15981
          ],
          [
            106.45654,
            11.16027
          ],
          [
            106.45899,
            11.15843
          ],
          [
            106.45964,
            11.15825
          ],
          [
            106.46118,
            11.15874
          ],
          [
            106.4628,
            11.15985
          ],
          [
            106.46386,
            11.15982
          ],
          [
            106.46646,
            11.15707
          ],
          [
            106.47062,
            11.1551
          ],
          [
            106.47108,
            11.15396
          ],
          [
            106.47091,
            11.15291
          ],
          [
            106.46997,
            11.15135
          ],
          [
            106.46759,
            11.14892
          ],
          [
            106.46735,
            11.14798
          ],
          [
            106.46791,
            11.1472
          ],
          [
            106.46966,
            11.14607
          ],
          [
            106.47091,
            11.14437
          ],
          [
            106.47257,
            11.14319
          ],
          [
            106.47862,
            11.14236
          ],
          [
            106.48214,
            11.1424
          ],
          [
            106.48724,
            11.14426
          ],
          [
            106.49003,
            11.14462
          ],
          [
            106.49137,
            11.1445
          ],
          [
            106.49697,
            11.14274
          ],
          [
            106.49993,
            11.14078
          ],
          [
            106.50138,
            11.14029
          ],
          [
            106.5026,
            11.14052
          ],
          [
            106.506,
            11.14215
          ],
          [
            106.5073,
            11.14221
          ],
          [
            106.5078,
            11.14161
          ],
          [
            106.5083,
            11.13974
          ],
          [
            106.5113,
            11.13555
          ],
          [
            106.5127,
            11.13224
          ],
          [
            106.5138,
            11.12862
          ],
          [
            106.5159,
            11.12542
          ],
          [
            106.5174,
            11.12404
          ],
          [
            106.5212,
            11.12181
          ],
          [
            106.5244,
            11.12124
          ],
          [
            106.5258,
            11.12149
          ],
          [
            106.5267,
            11.12104
          ],
          [
            106.527,
            11.12023
          ],
          [
            106.527,
            11.11752
          ],
          [
            106.5275,
            11.11626
          ],
          [
            106.5278,
            11.11415
          ],
          [
            106.5267,
            11.10698
          ],
          [
            106.5263,
            11.10586
          ],
          [
            106.5253,
            11.10449
          ],
          [
            106.5241,
            11.10362
          ],
          [
            106.5185,
            11.10258
          ],
          [
            106.517,
            11.10203
          ],
          [
            106.5164,
            11.10156
          ],
          [
            106.5162,
            11.10017
          ],
          [
            106.5173,
            11.09741
          ],
          [
            106.5216,
            11.09087
          ],
          [
            106.5224,
            11.09005
          ],
          [
            106.5235,
            11.08954
          ],
          [
            106.5242,
            11.08953
          ],
          [
            106.5251,
            11.08986
          ],
          [
            106.5273,
            11.09156
          ],
          [
            106.5291,
            11.09223
          ],
          [
            106.5323,
            11.092
          ],
          [
            106.533,
            11.09158
          ],
          [
            106.5338,
            11.09055
          ],
          [
            106.5339,
            11.08852
          ],
          [
            106.5325,
            11.08636
          ],
          [
            106.5279,
            11.08208
          ],
          [
            106.5268,
            11.0807
          ],
          [
            106.5241,
            11.07535
          ],
          [
            106.5238,
            11.07338
          ],
          [
            106.5254,
            11.06931
          ],
          [
            106.5288,
            11.06669
          ],
          [
            106.53,
            11.06504
          ],
          [
            106.5309,
            11.06242
          ],
          [
            106.5322,
            11.06017
          ],
          [
            106.5329,
            11.0591
          ],
          [
            106.5348,
            11.05745
          ],
          [
            106.5402,
            11.0549
          ],
          [
            106.5444,
            11.05337
          ],
          [
            106.5462,
            11.0521
          ],
          [
            106.5472,
            11.051
          ],
          [
            106.5483,
            11.04795
          ],
          [
            106.5489,
            11.04704
          ],
          [
            106.5503,
            11.04603
          ],
          [
            106.552,
            11.04577
          ],
          [
            106.5582,
            11.04569
          ],
          [
            106.5635,
            11.04507
          ],
          [
            106.5667,
            11.04504
          ],
          [
            106.5681,
            11.04593
          ],
          [
            106.5686,
            11.04755
          ],
          [
            106.5687,
            11.04988
          ],
          [
            106.5697,
            11.05205
          ],
          [
            106.5713,
            11.0542
          ],
          [
            106.572,
            11.05463
          ],
          [
            106.5727,
            11.05461
          ],
          [
            106.574,
            11.05373
          ],
          [
            106.5754,
            11.05188
          ],
          [
            106.5795,
            11.04803
          ],
          [
            106.5804,
            11.04572
          ],
          [
            106.5813,
            11.0406
          ],
          [
            106.5831,
            11.03784
          ],
          [
            106.5855,
            11.03668
          ],
          [
            106.5868,
            11.03638
          ],
          [
            106.5889,
            11.03626
          ],
          [
            106.5908,
            11.03692
          ],
          [
            106.5916,
            11.03873
          ],
          [
            106.5921,
            11.04195
          ],
          [
            106.5929,
            11.04343
          ],
          [
            106.5946,
            11.04507
          ],
          [
            106.5954,
            11.0454
          ],
          [
            106.5983,
            11.04559
          ],
          [
            106.5994,
            11.0453
          ],
          [
            106.6003,
            11.04446
          ],
          [
            106.6027,
            11.04126
          ],
          [
            106.60343,
            11.03953
          ],
          [
            106.5962,
            11.03107
          ],
          [
            106.5957,
            11.03027
          ],
          [
            106.5952,
            11.02817
          ],
          [
            106.5951,
            11.02439
          ],
          [
            106.5968,
            11.01863
          ],
          [
            106.5979,
            11.01598
          ],
          [
            106.5998,
            11.01453
          ],
          [
            106.6088,
            11.01184
          ],
          [
            106.6163,
            11.01159
          ],
          [
            106.6184,
            11.0104
          ],
          [
            106.6196,
            11.00892
          ],
          [
            106.6211,
            11.00593
          ],
          [
            106.6213,
            11.00501
          ],
          [
            106.621,
            11.00186
          ],
          [
            106.6205,
            11.00043
          ],
          [
            106.6163,
            10.99293
          ],
          [
            106.6159,
            10.99126
          ],
          [
            106.6162,
            10.9898
          ],
          [
            106.6168,
            10.98862
          ],
          [
            106.6178,
            10.9876
          ],
          [
            106.6223,
            10.98457
          ],
          [
            106.6261,
            10.98029
          ],
          [
            106.628,
            10.97919
          ],
          [
            106.6337,
            10.97771
          ],
          [
            106.636,
            10.97744
          ],
          [
            106.6374,
            10.97744
          ],
          [
            106.6415,
            10.97991
          ],
          [
            106.6443,
            10.98104
          ],
          [
            106.6467,
            10.98123
          ],
          [
            106.6475,
            10.98096
          ],
          [
            106.6486,
            10.98004
          ],
          [
            106.6492,
            10.97888
          ],
          [
            106.6502,
            10.97444
          ],
          [
            106.64999,
            10.97234
          ],
          [
            106.6492,
            10.96968
          ],
          [
            106.6488,
            10.96706
          ],
          [
            106.6489,
            10.96449
          ],
          [
            106.6496,
            10.96138
          ],
          [
            106.6521,
            10.95353
          ],
          [
            106.6525,
            10.94943
          ],
          [
            106.6518,
            10.94285
          ],
          [
            106.6502,
            10.93742
          ],
          [
            106.6504,
            10.93448
          ],
          [
            106.6508,
            10.93312
          ],
          [
            106.6534,
            10.92909
          ],
          [
            106.6553,
            10.92746
          ],
          [
            106.6574,
            10.92579
          ],
          [
            106.6632,
            10.92268
          ],
          [
            106.6667,
            10.92151
          ],
          [
            106.6698,
            10.92102
          ],
          [
            106.6784,
            10.92368
          ],
          [
            106.6808,
            10.9239
          ],
          [
            106.6827,
            10.92291
          ],
          [
            106.6849,
            10.92124
          ],
          [
            106.6873,
            10.91731
          ],
          [
            106.6902,
            10.91118
          ],
          [
            106.6934,
            10.90271
          ],
          [
            106.6944,
            10.8975
          ],
          [
            106.6945,
            10.89571
          ],
          [
            106.6942,
            10.89412
          ],
          [
            106.6917,
            10.88948
          ],
          [
            106.6894,
            10.88591
          ],
          [
            106.6892,
            10.88297
          ],
          [
            106.6898,
            10.88067
          ],
          [
            106.6966,
            10.8717
          ],
          [
            106.70071,
            10.86796
          ],
          [
            106.70231,
            10.86725
          ],
          [
            106.71081,
            10.86638
          ],
          [
            106.71311,
            10.86571
          ],
          [
            106.71547,
            10.86838
          ],
          [
            106.71504,
            10.87261
          ],
          [
            106.71629,
            10.87286
          ],
          [
            106.71791,
            10.87241
          ],
          [
            106.71996,
            10.87232
          ],
          [
            106.72146,
            10.87173
          ],
          [
            106.72365,
            10.87178
          ],
          [
            106.72348,
            10.87275
          ],
          [
            106.72263,
            10.87342
          ],
          [
            106.72174,
            10.87485
          ],
          [
            106.72144,
            10.87639
          ],
          [
            106.71529,
            10.87742
          ],
          [
            106.71405,
            10.877
          ],
          [
            106.71384,
            10.87781
          ],
          [
            106.71285,
            10.87742
          ],
          [
            106.71265,
            10.87788
          ],
          [
            106.71398,
            10.87937
          ],
          [
            106.71788,
            10.88098
          ],
          [
            106.71693,
            10.88268
          ],
          [
            106.71661,
            10.88462
          ],
          [
            106.71759,
            10.88775
          ],
          [
            106.71704,
            10.88799
          ],
          [
            106.71555,
            10.8877
          ],
          [
            106.71443,
            10.88687
          ],
          [
            106.71386,
            10.88751
          ],
          [
            106.71451,
            10.88815
          ],
          [
            106.71347,
            10.88879
          ],
          [
            106.7131,
            10.88943
          ],
          [
            106.71311,
            10.8899
          ],
          [
            106.71565,
            10.89315
          ],
          [
            106.71764,
            10.89644
          ],
          [
            106.72105,
            10.89403
          ],
          [
            106.7275,
            10.89019
          ],
          [
            106.72868,
            10.89106
          ],
          [
            106.72957,
            10.88968
          ],
          [
            106.73283,
            10.89073
          ],
          [
            106.73146,
            10.88591
          ],
          [
            106.73682,
            10.88475
          ],
          [
            106.73418,
            10.88051
          ],
          [
            106.73537,
            10.88023
          ],
          [
            106.73607,
            10.8796
          ],
          [
            106.73666,
            10.8806
          ],
          [
            106.7384,
            10.87943
          ],
          [
            106.73967,
            10.8809
          ],
          [
            106.74039,
            10.88076
          ],
          [
            106.74114,
            10.88144
          ],
          [
            106.74329,
            10.88044
          ],
          [
            106.74354,
            10.88093
          ],
          [
            106.74377,
            10.88071
          ],
          [
            106.74498,
            10.88163
          ],
          [
            106.74566,
            10.88079
          ],
          [
            106.74469,
            10.88008
          ],
          [
            106.7472,
            10.87739
          ],
          [
            106.74838,
            10.87822
          ],
          [
            106.7494,
            10.87676
          ],
          [
            106.75037,
            10.87729
          ],
          [
            106.75134,
            10.87546
          ],
          [
            106.74644,
            10.87388
          ],
          [
            106.74706,
            10.87204
          ],
          [
            106.74599,
            10.8717
          ],
          [
            106.74731,
            10.86948
          ],
          [
            106.74791,
            10.86928
          ],
          [
            106.74797,
            10.86728
          ],
          [
            106.74863,
            10.86564
          ],
          [
            106.74911,
            10.86582
          ],
          [
            106.7499,
            10.86444
          ],
          [
            106.75052,
            10.86404
          ],
          [
            106.75121,
            10.86443
          ],
          [
            106.75175,
            10.86346
          ],
          [
            106.7525,
            10.86379
          ],
          [
            106.75283,
            10.86444
          ],
          [
            106.75375,
            10.8652
          ],
          [
            106.75358,
            10.86571
          ],
          [
            106.7546,
            10.86628
          ],
          [
            106.75604,
            10.8664
          ],
          [
            106.7575,
            10.86709
          ],
          [
            106.75954,
            10.86688
          ],
          [
            106.76224,
            10.86726
          ],
          [
            106.76308,
            10.86877
          ],
          [
            106.76328,
            10.86992
          ],
          [
            106.76221,
            10.87108
          ],
          [
            106.76038,
            10.87238
          ],
          [
            106.76179,
            10.87439
          ],
          [
            106.76127,
            10.87456
          ],
          [
            106.7619,
            10.87554
          ],
          [
            106.76143,
            10.87852
          ],
          [
            106.76194,
            10.87871
          ],
          [
            106.76052,
            10.88126
          ],
          [
            106.76356,
            10.88386
          ],
          [
            106.76401,
            10.88494
          ],
          [
            106.76455,
            10.88486
          ],
          [
            106.76474,
            10.88632
          ],
          [
            106.76528,
            10.88761
          ],
          [
            106.76602,
            10.88845
          ],
          [
            106.76689,
            10.89155
          ],
          [
            106.76767,
            10.89163
          ],
          [
            106.76726,
            10.89251
          ],
          [
            106.76842,
            10.89224
          ],
          [
            106.76842,
            10.89404
          ],
          [
            106.76954,
            10.89392
          ],
          [
            106.77271,
            10.88971
          ],
          [
            106.77511,
            10.88755
          ],
          [
            106.77691,
            10.88499
          ],
          [
            106.78061,
            10.88119
          ],
          [
            106.78117,
            10.87989
          ],
          [
            106.78131,
            10.87825
          ],
          [
            106.78211,
            10.8772
          ],
          [
            106.78185,
            10.87396
          ],
          [
            106.78023,
            10.86966
          ],
          [
            106.78033,
            10.86827
          ],
          [
            106.78303,
            10.86749
          ],
          [
            106.78773,
            10.86721
          ],
          [
            106.78795,
            10.87008
          ],
          [
            106.78892,
            10.87195
          ],
          [
            106.79217,
            10.87198
          ],
          [
            106.79217,
            10.87259
          ],
          [
            106.79353,
            10.87259
          ],
          [
            106.79516,
            10.87356
          ],
          [
            106.79588,
            10.87356
          ],
          [
            106.79589,
            10.87322
          ],
          [
            106.79783,
            10.87321
          ],
          [
            106.79788,
            10.87236
          ],
          [
            106.79867,
            10.87201
          ],
          [
            106.80133,
            10.87363
          ],
          [
            106.80435,
            10.8737
          ],
          [
            106.80499,
            10.87427
          ],
          [
            106.8053,
            10.87512
          ],
          [
            106.80772,
            10.87385
          ],
          [
            106.80848,
            10.87292
          ],
          [
            106.81307,
            10.87911
          ],
          [
            106.81386,
            10.87842
          ],
          [
            106.81524,
            10.8796
          ],
          [
            106.81629,
            10.88123
          ],
          [
            106.81719,
            10.88107
          ],
          [
            106.81782,
            10.88287
          ],
          [
            106.81754,
            10.88292
          ],
          [
            106.81748,
            10.8836
          ],
          [
            106.81807,
            10.88422
          ],
          [
            106.81911,
            10.88424
          ],
          [
            106.8194,
            10.88575
          ],
          [
            106.8197,
            10.88571
          ],
          [
            106.82041,
            10.88634
          ],
          [
            106.82037,
            10.88574
          ],
          [
            106.82178,
            10.88589
          ],
          [
            106.82217,
            10.88619
          ],
          [
            106.82238,
            10.88706
          ],
          [
            106.82314,
            10.88733
          ],
          [
            106.82413,
            10.88823
          ],
          [
            106.82423,
            10.88913
          ],
          [
            106.82358,
            10.89101
          ],
          [
            106.82358,
            10.89254
          ],
          [
            106.82389,
            10.89288
          ],
          [
            106.82479,
            10.89269
          ],
          [
            106.82509,
            10.89287
          ],
          [
            106.82535,
            10.89321
          ],
          [
            106.82499,
            10.89327
          ],
          [
            106.82509,
            10.89376
          ],
          [
            106.82587,
            10.89366
          ],
          [
            106.82673,
            10.8948
          ],
          [
            106.82794,
            10.89429
          ],
          [
            106.82985,
            10.89498
          ],
          [
            106.83049,
            10.89606
          ],
          [
            106.83168,
            10.89691
          ],
          [
            106.83236,
            10.89681
          ],
          [
            106.83234,
            10.89718
          ],
          [
            106.83292,
            10.89728
          ],
          [
            106.83327,
            10.898
          ],
          [
            106.83391,
            10.89798
          ],
          [
            106.83392,
            10.89826
          ],
          [
            106.83822,
            10.89836
          ],
          [
            106.84013,
            10.89885
          ],
          [
            106.84224,
            10.89185
          ],
          [
            106.84524,
            10.88452
          ],
          [
            106.84785,
            10.87989
          ],
          [
            106.85132,
            10.87531
          ],
          [
            106.84929,
            10.86957
          ],
          [
            106.84682,
            10.8649
          ],
          [
            106.84923,
            10.85811
          ],
          [
            106.85205,
            10.85157
          ],
          [
            106.85693,
            10.84263
          ],
          [
            106.86468,
            10.83386
          ],
          [
            106.87111,
            10.82598
          ],
          [
            106.87812,
            10.81854
          ],
          [
            106.88106,
            10.81247
          ],
          [
            106.88155,
            10.81066
          ],
          [
            106.88176,
            10.80837
          ],
          [
            106.88156,
            10.80653
          ],
          [
            106.88069,
            10.80482
          ],
          [
            106.87868,
            10.80212
          ],
          [
            106.87568,
            10.79851
          ],
          [
            106.86574,
            10.79121
          ],
          [
            106.86473,
            10.78997
          ],
          [
            106.86427,
            10.78845
          ],
          [
            106.86437,
            10.78658
          ],
          [
            106.86499,
            10.78445
          ],
          [
            106.87136,
            10.77723
          ],
          [
            106.87335,
            10.77364
          ],
          [
            106.87411,
            10.7712
          ],
          [
            106.8738,
            10.7687
          ],
          [
            106.87263,
            10.76693
          ],
          [
            106.86947,
            10.76483
          ],
          [
            106.8669,
            10.76448
          ],
          [
            106.86529,
            10.76464
          ],
          [
            106.86241,
            10.76574
          ],
          [
            106.86094,
            10.76672
          ],
          [
            106.85364,
            10.77415
          ],
          [
            106.85127,
            10.77516
          ],
          [
            106.84871,
            10.7755
          ],
          [
            106.84658,
            10.7754
          ],
          [
            106.84262,
            10.77419
          ],
          [
            106.83902,
            10.772
          ],
          [
            106.83559,
            10.7692
          ],
          [
            106.83136,
            10.7642
          ],
          [
            106.82892,
            10.76063
          ],
          [
            106.82664,
            10.75955
          ],
          [
            106.82483,
            10.75958
          ],
          [
            106.82386,
            10.76016
          ],
          [
            106.82346,
            10.76077
          ],
          [
            106.82302,
            10.76347
          ],
          [
            106.8256,
            10.77253
          ],
          [
            106.82562,
            10.77592
          ],
          [
            106.8253,
            10.77722
          ],
          [
            106.82435,
            10.77887
          ],
          [
            106.82253,
            10.78052
          ],
          [
            106.82097,
            10.781
          ],
          [
            106.81942,
            10.78088
          ],
          [
            106.81632,
            10.7797
          ],
          [
            106.81454,
            10.77865
          ],
          [
            106.8128,
            10.77729
          ],
          [
            106.80732,
            10.77196
          ],
          [
            106.80606,
            10.77033
          ],
          [
            106.80521,
            10.76864
          ],
          [
            106.8034,
            10.76319
          ],
          [
            106.80138,
            10.76041
          ],
          [
            106.79689,
            10.75777
          ],
          [
            106.78534,
            10.75304
          ],
          [
            106.77732,
            10.74937
          ],
          [
            106.77415,
            10.74769
          ],
          [
            106.77085,
            10.74529
          ],
          [
            106.76866,
            10.74314
          ],
          [
            106.76487,
            10.73772
          ],
          [
            106.75366,
            10.72346
          ],
          [
            106.7523,
            10.72042
          ],
          [
            106.75125,
            10.71347
          ],
          [
            106.75142,
            10.70745
          ],
          [
            106.75276,
            10.70211
          ],
          [
            106.7544,
            10.69759
          ],
          [
            106.75867,
            10.69174
          ],
          [
            106.76149,
            10.68902
          ],
          [
            106.76771,
            10.68214
          ],
          [
            106.77399,
            10.67634
          ],
          [
            106.77608,
            10.67521
          ],
          [
            106.78423,
            10.67194
          ],
          [
            106.78752,
            10.67025
          ],
          [
            106.79694,
            10.66266
          ],
          [
            106.80173,
            10.66004
          ],
          [
            106.8058,
            10.65722
          ],
          [
            106.80824,
            10.6551
          ],
          [
            106.8099,
            10.65278
          ],
          [
            106.8128,
            10.64294
          ],
          [
            106.81549,
            10.63853
          ],
          [
            106.8231,
            10.62983
          ],
          [
            106.82628,
            10.62783
          ],
          [
            106.83227,
            10.62669
          ],
          [
            106.83442,
            10.62663
          ],
          [
            106.83543,
            10.62696
          ],
          [
            106.8367,
            10.62752
          ],
          [
            106.83871,
            10.62943
          ],
          [
            106.8401,
            10.63427
          ],
          [
            106.84102,
            10.63648
          ],
          [
            106.84313,
            10.63799
          ],
          [
            106.84836,
            10.63942
          ],
          [
            106.85137,
            10.6396
          ],
          [
            106.85396,
            10.639
          ],
          [
            106.85892,
            10.63663
          ],
          [
            106.86034,
            10.63655
          ],
          [
            106.86128,
            10.63714
          ],
          [
            106.86189,
            10.63794
          ],
          [
            106.86289,
            10.64042
          ],
          [
            106.86373,
            10.64164
          ],
          [
            106.8657,
            10.64262
          ],
          [
            106.86877,
            10.64252
          ],
          [
            106.87001,
            10.64322
          ],
          [
            106.87128,
            10.64641
          ],
          [
            106.87277,
            10.64799
          ],
          [
            106.87543,
            10.64843
          ],
          [
            106.87932,
            10.64844
          ],
          [
            106.88199,
            10.64799
          ],
          [
            106.88285,
            10.64761
          ],
          [
            106.88347,
            10.64677
          ],
          [
            106.88416,
            10.64476
          ],
          [
            106.88442,
            10.64216
          ],
          [
            106.88487,
            10.64074
          ],
          [
            106.88627,
            10.63946
          ],
          [
            106.88769,
            10.63875
          ],
          [
            106.89349,
            10.63647
          ],
          [
            106.89556,
            10.63437
          ],
          [
            106.89726,
            10.62987
          ],
          [
            106.90345,
            10.62467
          ],
          [
            106.90434,
            10.62343
          ],
          [
            106.9098,
            10.60997
          ],
          [
            106.91128,
            10.60816
          ],
          [
            106.91297,
            10.60781
          ],
          [
            106.9184,
            10.61005
          ],
          [
            106.92125,
            10.60997
          ],
          [
            106.9226,
            10.60895
          ],
          [
            106.92591,
            10.60447
          ],
          [
            106.92808,
            10.60311
          ],
          [
            106.93215,
            10.60198
          ],
          [
            106.93552,
            10.6002
          ],
          [
            106.93784,
            10.59991
          ],
          [
            106.9386,
            10.59936
          ],
          [
            106.94004,
            10.59751
          ],
          [
            106.94138,
            10.59672
          ],
          [
            106.94389,
            10.59679
          ],
          [
            106.94661,
            10.59738
          ],
          [
            106.95538,
            10.59421
          ],
          [
            106.96051,
            10.59358
          ],
          [
            106.9637,
            10.59122
          ],
          [
            106.96667,
            10.59052
          ],
          [
            106.96875,
            10.5893
          ],
          [
            106.97493,
            10.58234
          ],
          [
            106.97571,
            10.58204
          ],
          [
            106.97782,
            10.58224
          ],
          [
            106.97963,
            10.58192
          ],
          [
            106.98373,
            10.57921
          ],
          [
            106.98584,
            10.58335
          ],
          [
            106.9872,
            10.58778
          ],
          [
            106.98621,
            10.59572
          ],
          [
            106.98711,
            10.5972
          ],
          [
            106.99056,
            10.60055
          ],
          [
            106.99075,
            10.60182
          ],
          [
            106.9902,
            10.60414
          ],
          [
            106.99077,
            10.6052
          ],
          [
            106.99203,
            10.60572
          ],
          [
            106.99592,
            10.60542
          ],
          [
            106.9965,
            10.60588
          ],
          [
            106.9973,
            10.60736
          ],
          [
            106.99814,
            10.60779
          ],
          [
            106.99902,
            10.60771
          ],
          [
            107.00051,
            10.607
          ],
          [
            107.00246,
            10.60879
          ],
          [
            107.00221,
            10.61082
          ],
          [
            107.003,
            10.61105
          ],
          [
            107.00537,
            10.60997
          ],
          [
            107.00646,
            10.60994
          ],
          [
            107.00703,
            10.61036
          ],
          [
            107.00829,
            10.61301
          ],
          [
            107.01403,
            10.60913
          ],
          [
            107.01795,
            10.60527
          ],
          [
            107.02015,
            10.60232
          ],
          [
            107.02235,
            10.59597
          ],
          [
            107.02683,
            10.58844
          ],
          [
            107.0272,
            10.58597
          ],
          [
            107.02691,
            10.58293
          ],
          [
            107.02667,
            10.58175
          ],
          [
            107.02591,
            10.5802
          ],
          [
            107.0246,
            10.57852
          ],
          [
            107.02066,
            10.57191
          ],
          [
            107.0155,
            10.56546
          ],
          [
            107.01328,
            10.56216
          ],
          [
            107.01125,
            10.55684
          ],
          [
            107.0113,
            10.55467
          ],
          [
            107.01226,
            10.55083
          ],
          [
            107.01343,
            10.54946
          ],
          [
            107.01492,
            10.54849
          ],
          [
            107.01721,
            10.5476
          ],
          [
            107.02369,
            10.54608
          ],
          [
            107.02549,
            10.54542
          ],
          [
            107.02671,
            10.54442
          ],
          [
            107.02762,
            10.54169
          ],
          [
            107.02758,
            10.5394
          ],
          [
            107.02606,
            10.53579
          ],
          [
            107.02402,
            10.53309
          ],
          [
            107.01262,
            10.52234
          ],
          [
            107.01233,
            10.51973
          ],
          [
            107.01144,
            10.51755
          ],
          [
            107.00769,
            10.51142
          ],
          [
            107.00583,
            10.50985
          ],
          [
            106.99971,
            10.50672
          ],
          [
            106.99875,
            10.50577
          ],
          [
            106.99655,
            10.49109
          ],
          [
            107.00655,
            10.46716
          ],
          [
            107.00855,
            10.45688
          ],
          [
            106.99337,
            10.13995
          ]
        ]
      ]
    ]
  }
}
